{
  "type": "FeatureCollection",
  "features": [
    {
      "type": "Feature",
      "properties": {
        "norad_id": 39766,
        "name": "ALOS-2",
        "group": "resource",
        "lat": -28.71787466656413,
        "lon": -105.08181859994382,
        "alt_km": 637.2527717581124,
        "timestamp": "2025-12-10T09:57:44.361400+00:00",
        "meta_object_name": "ALOS-2",
        "meta_object_id": "2014-029A",
        "meta_epoch": "2025-12-10T05:46:28.869024",
        "meta_mean_motion": 14.79467364,
        "meta_eccentricity": 0.0001488,
        "meta_inclination": 97.9228,
        "meta_ra_of_asc_node": 79.1221,
        "meta_arg_of_pericenter": 99.2878,
        "meta_mean_anomaly": 260.8502,
        "meta_ephemeris_type": 0,
        "meta_classification_type": "U",
        "meta_norad_cat_id": 39766,
        "meta_element_set_no": 999,
        "meta_rev_at_epoch": 62364,
        "meta_bstar": 0.00055008,
        "meta_mean_motion_dot": 4.058e-05,
        "meta_mean_motion_ddot": 0,
        "tle_line1": "1 39766U 14029A   25344.24061191  .00004058  00000+0  55008-3 0  9996",
        "tle_line2": "2 39766  97.9228  79.1221 0001488  99.2878 260.8502 14.79467364623641"
      },
      "geometry": {
        "type": "Point",
        "coordinates": [
          -105.08181859994382,
          -28.71787466656413
        ]
      }
    },
    {
      "type": "Feature",
      "properties": {
        "norad_id": 40010,
        "name": "KAZEOSAT 2",
        "group": "resource",
        "lat": 69.96201138277986,
        "lon": 167.52419418283364,
        "alt_km": 610.5532028053203,
        "timestamp": "2025-12-10T09:57:44.361410+00:00",
        "meta_object_name": "KAZEOSAT 2",
        "meta_object_id": "2014-033A",
        "meta_epoch": "2025-12-10T04:47:26.392128",
        "meta_mean_motion": 14.85161531,
        "meta_eccentricity": 0.0007521,
        "meta_inclination": 97.5502,
        "meta_ra_of_asc_node": 188.6449,
        "meta_arg_of_pericenter": 215.9153,
        "meta_mean_anomaly": 144.1558,
        "meta_ephemeris_type": 0,
        "meta_classification_type": "U",
        "meta_norad_cat_id": 40010,
        "meta_element_set_no": 999,
        "meta_rev_at_epoch": 62090,
        "meta_bstar": 0.00016871,
        "meta_mean_motion_dot": 1.395e-05,
        "meta_mean_motion_ddot": 0,
        "tle_line1": "1 40010U 14033A   25344.19961102  .00001395  00000+0  16871-3 0  9996",
        "tle_line2": "2 40010  97.5502 188.6449 0007521 215.9153 144.1558 14.85161531620906"
      },
      "geometry": {
        "type": "Point",
        "coordinates": [
          167.52419418283364,
          69.96201138277986
        ]
      }
    },
    {
      "type": "Feature",
      "properties": {
        "norad_id": 40011,
        "name": "HODOYOSHI-4",
        "group": "resource",
        "lat": 39.80977700085189,
        "lon": -0.24724781415509478,
        "alt_km": 597.0496175709513,
        "timestamp": "2025-12-10T09:57:44.361420+00:00",
        "meta_object_name": "HODOYOSHI-4",
        "meta_object_id": "2014-033B",
        "meta_epoch": "2025-12-10T04:29:28.627296",
        "meta_mean_motion": 14.87462316,
        "meta_eccentricity": 0.0023013,
        "meta_inclination": 97.5412,
        "meta_ra_of_asc_node": 173.1971,
        "meta_arg_of_pericenter": 209.4948,
        "meta_mean_anomaly": 150.4972,
        "meta_ephemeris_type": 0,
        "meta_classification_type": "U",
        "meta_norad_cat_id": 40011,
        "meta_element_set_no": 999,
        "meta_rev_at_epoch": 62070,
        "meta_bstar": 0.00011526,
        "meta_mean_motion_dot": 9.96e-06,
        "meta_mean_motion_ddot": 0,
        "tle_line1": "1 40011U 14033B   25344.18713689  .00000996  00000+0  11526-3 0  9999",
        "tle_line2": "2 40011  97.5412 173.1971 0023013 209.4948 150.4972 14.87462316620705"
      },
      "geometry": {
        "type": "Point",
        "coordinates": [
          -0.24724781415509478,
          39.80977700085189
        ]
      }
    },
    {
      "type": "Feature",
      "properties": {
        "norad_id": 40013,
        "name": "DEIMOS-2",
        "group": "resource",
        "lat": -69.88931885275608,
        "lon": 18.887719968248543,
        "alt_km": 596.6887641675876,
        "timestamp": "2025-12-10T09:57:44.361430+00:00",
        "meta_object_name": "DEIMOS-2",
        "meta_object_id": "2014-033D",
        "meta_epoch": "2025-12-10T04:00:52.187616",
        "meta_mean_motion": 14.92956197,
        "meta_eccentricity": 0.0001004,
        "meta_inclination": 97.6063,
        "meta_ra_of_asc_node": 220.0529,
        "meta_arg_of_pericenter": 86.9475,
        "meta_mean_anomaly": 273.186,
        "meta_ephemeris_type": 0,
        "meta_classification_type": "U",
        "meta_norad_cat_id": 40013,
        "meta_element_set_no": 999,
        "meta_rev_at_epoch": 60951,
        "meta_bstar": 0.00030954,
        "meta_mean_motion_dot": 3.16e-05,
        "meta_mean_motion_ddot": 0,
        "tle_line1": "1 40013U 14033D   25344.16727069  .00003160  00000+0  30954-3 0  9998",
        "tle_line2": "2 40013  97.6063 220.0529 0001004  86.9475 273.1860 14.92956197609516"
      },
      "geometry": {
        "type": "Point",
        "coordinates": [
          18.887719968248543,
          -69.88931885275608
        ]
      }
    },
    {
      "type": "Feature",
      "properties": {
        "norad_id": 40015,
        "name": "HODOYOSHI-3",
        "group": "resource",
        "lat": 82.00238369992097,
        "lon": 78.01519931649855,
        "alt_km": 628.5733734824726,
        "timestamp": "2025-12-10T09:57:44.361440+00:00",
        "meta_object_name": "HODOYOSHI-3",
        "meta_object_id": "2014-033F",
        "meta_epoch": "2025-12-10T01:28:49.908000",
        "meta_mean_motion": 14.84792375,
        "meta_eccentricity": 0.0031825,
        "meta_inclination": 97.62,
        "meta_ra_of_asc_node": 150.0133,
        "meta_arg_of_pericenter": 257.1175,
        "meta_mean_anomaly": 102.6485,
        "meta_ephemeris_type": 0,
        "meta_classification_type": "U",
        "meta_norad_cat_id": 40015,
        "meta_element_set_no": 999,
        "meta_rev_at_epoch": 61955,
        "meta_bstar": 0.00031145,
        "meta_mean_motion_dot": 2.614e-05,
        "meta_mean_motion_ddot": 0,
        "tle_line1": "1 40015U 14033F   25344.06168875  .00002614  00000+0  31145-3 0  9999",
        "tle_line2": "2 40015  97.6200 150.0133 0031825 257.1175 102.6485 14.84792375619558"
      },
      "geometry": {
        "type": "Point",
        "coordinates": [
          78.01519931649855,
          82.00238369992097
        ]
      }
    },
    {
      "type": "Feature",
      "properties": {
        "norad_id": 40053,
        "name": "SPOT 7",
        "group": "resource",
        "lat": 11.198488435755142,
        "lon": 44.93029587699682,
        "alt_km": 692.0059874902781,
        "timestamp": "2025-12-10T09:57:44.361451+00:00",
        "meta_object_name": "SPOT 7",
        "meta_object_id": "2014-034A",
        "meta_epoch": "2025-12-10T04:58:43.324032",
        "meta_mean_motion": 14.60728264,
        "meta_eccentricity": 0.0001558,
        "meta_inclination": 98.0905,
        "meta_ra_of_asc_node": 46.3412,
        "meta_arg_of_pericenter": 89.7309,
        "meta_mean_anomaly": 270.4071,
        "meta_ephemeris_type": 0,
        "meta_classification_type": "U",
        "meta_norad_cat_id": 40053,
        "meta_element_set_no": 999,
        "meta_rev_at_epoch": 60954,
        "meta_bstar": 0.0001544,
        "meta_mean_motion_dot": 7.07e-06,
        "meta_mean_motion_ddot": 0,
        "tle_line1": "1 40053U 14034A   25344.20744588  .00000707  00000+0  15440-3 0  9990",
        "tle_line2": "2 40053  98.0905  46.3412 0001558  89.7309 270.4071 14.60728264609545"
      },
      "geometry": {
        "type": "Point",
        "coordinates": [
          44.93029587699682,
          11.198488435755142
        ]
      }
    },
    {
      "type": "Feature",
      "properties": {
        "norad_id": 40072,
        "name": "SKYSAT-B",
        "group": "resource",
        "lat": 79.77011935994284,
        "lon": -126.5822025521422,
        "alt_km": 597.7228237958261,
        "timestamp": "2025-12-10T09:57:44.361461+00:00",
        "meta_object_name": "SKYSAT-B",
        "meta_object_id": "2014-037D",
        "meta_epoch": "2025-12-09T19:03:13.836960",
        "meta_mean_motion": 14.87310727,
        "meta_eccentricity": 0.0005909,
        "meta_inclination": 98.3608,
        "meta_ra_of_asc_node": 287.3443,
        "meta_arg_of_pericenter": 159.0693,
        "meta_mean_anomaly": 201.0764,
        "meta_ephemeris_type": 0,
        "meta_classification_type": "U",
        "meta_norad_cat_id": 40072,
        "meta_element_set_no": 999,
        "meta_rev_at_epoch": 61780,
        "meta_bstar": 0.00038192,
        "meta_mean_motion_dot": 3.387e-05,
        "meta_mean_motion_ddot": 0,
        "tle_line1": "1 40072U 14037D   25343.79391015  .00003387  00000+0  38192-3 0  9996",
        "tle_line2": "2 40072  98.3608 287.3443 0005909 159.0693 201.0764 14.87310727617808"
      },
      "geometry": {
        "type": "Point",
        "coordinates": [
          -126.5822025521422,
          79.77011935994284
        ]
      }
    }
  ]
}